NORAD_CAT_ID,OBJECT_NAME,OBJECT_TYPE,EPOCH,MEAN_MOTION,ECCENTRICITY,INCLINATION,RA_OF_ASC_NODE,ARG_OF_PERICENTER,MEAN_ANOMALY,BSTAR,MEAN_MOTION_DOT,MEAN_MOTION_DDOT,TLE_LINE0,TLE_LINE1,TLE_LINE2,SEMIMAJOR_AXIS,PERIOD,APOGEE,PERIGEE,DECAYED
53716.0,STARLINK-4699,PAYLOAD,2023-04-28 12:43:51,15.08851116,0.000131,53.2162,270.1909,129.6267,230.484,-6.1414e-05,-1.265e-05,0.0,0 STARLINK-4699,1 53716U 22107S   23118.53045469 -.00001265  00000-0 -61414-4 0  9991,2 53716  53.2162 270.1909 0001310 129.6267 230.4840 15.08851116 36476,6917.846,95.437,540.618,538.805,0.0
53716.0,STARLINK-4699,PAYLOAD,2023-04-29 09:23:52,15.08843364,0.0001249,53.2159,266.3262,132.9584,227.1513,0.00027945,4.163e-05,0.0,0 STARLINK-4699,1 53716U 22107S   23119.39157718  .00004163  00000-0  27945-3 0  9995,2 53716  53.2159 266.3262 0001249 132.9584 227.1513 15.08843364 36602,6917.87,95.437,540.599,538.871,0.0
53716.0,STARLINK-4699,PAYLOAD,2023-04-29 18:56:10,15.08849911,0.0001191,53.2154,264.5408,129.8017,230.3081,0.00042105,6.421e-05,0.0,0 STARLINK-4699,1 53716U 22107S   23119.78901546  .00006421  00000-0  42105-3 0  9998,2 53716  53.2154 264.5408 0001191 129.8017 230.3081 15.08849911 36218,6917.85,95.437,540.539,538.891,0.0
53716.0,STARLINK-4699,PAYLOAD,2023-04-30 14:00:48,15.08842855,0.0001178,53.2158,260.9722,123.2676,236.8429,0.00017585,2.512e-05,0.0,0 STARLINK-4699,1 53716U 22107S   23120.58389799  .00002512  00000-0  17585-3 0  9999,2 53716  53.2158 260.9722 0001178 123.2676 236.8429 15.08842855 36335,6917.872,95.437,540.552,538.922,0.0
53716.0,STARLINK-4699,PAYLOAD,2023-05-01 13:51:36,15.08839608,0.0001223,53.2159,256.5095,137.5677,222.541,2.2914e-05,7.7e-07,0.0,0 STARLINK-4699,1 53716U 22107S   23121.57750020  .00000077  00000-0  22914-4 0  9995,2 53716  53.2159 256.5095 0001223 137.5677 222.5410 15.08839608 36930,6917.882,95.438,540.593,538.901,0.0
53716.0,STARLINK-4699,PAYLOAD,2023-05-01 15:26:59,15.08840118,6.66e-05,53.216,256.2119,128.9843,231.1209,3.7528e-05,3.1e-06,0.0,0 STARLINK-4699,1 53716U 22107S   23121.64374009  .00000310  00000-0  37528-4 0  9999,2 53716  53.2160 256.2119 0000666 128.9843 231.1209 15.08840118 36496,6917.88,95.438,540.206,539.284,0.0
53716.0,STARLINK-4699,PAYLOAD,2023-05-01 17:02:22,15.08842169,6.36e-05,53.2159,255.9142,125.8372,234.268,7.3293e-05,8.79e-06,0.0,0 STARLINK-4699,1 53716U 22107S   23121.70997934  .00000879  00000-0  73293-4 0  9993,2 53716  53.2159 255.9142 0000636 125.8372 234.2680 15.08842169 36952,6917.874,95.437,540.179,539.299,0.0
53716.0,STARLINK-4699,PAYLOAD,2023-05-02 13:42:22,15.08847324,5.61e-05,53.216,252.0503,86.5638,273.5418,0.00021271,3.1e-05,0.0,0 STARLINK-4699,1 53716U 22107S   23122.57109948  .00003100  00000-0  21271-3 0  9997,2 53716  53.2160 252.0503 0000561  86.5638 273.5418 15.08847324 37086,6917.858,95.437,540.111,539.335,0.0
53716.0,STARLINK-4699,PAYLOAD,2023-05-02 16:53:09,15.0885121,6.14e-05,53.2158,251.4547,87.5137,272.5925,0.00034001,5.129e-05,0.0,0 STARLINK-4699,1 53716U 22107S   23122.70357828  .00005129  00000-0  34001-3 0  9992,2 53716  53.2158 251.4547 0000614  87.5137 272.5925 15.08851210 37102,6917.846,95.437,540.136,539.286,0.0
53716.0,STARLINK-4699,PAYLOAD,2023-05-03 13:33:10,15.088421,7.24e-05,53.216,247.5877,114.2526,245.8542,0.00011427,1.532e-05,0.0,0 STARLINK-4699,1 53716U 22107S   23123.56470093  .00001532  00000-0  11427-3 0  9998,2 53716  53.2160 247.5877 0000724 114.2526 245.8542 15.08842100 36788,6917.874,95.437,540.24,539.238,0.0
53716.0,STARLINK-4699,PAYLOAD,2023-05-03 18:19:19,15.08845621,5.47e-05,53.2161,246.6968,94.0443,266.0612,0.0001749,2.497e-05,0.0,0 STARLINK-4699,1 53716U 22107S   23123.76341976  .00002497  00000-0  17490-3 0  9994,2 53716  53.2161 246.6968 0000547  94.0443 266.0612 15.08845621 37264,6917.863,95.437,540.107,539.35,0.0
53716.0,STARLINK-4699,PAYLOAD,2023-05-04 13:23:57,15.08846622,6.78e-05,53.2175,243.1269,64.5957,295.5105,6.955e-05,8.2e-06,0.0,0 STARLINK-4699,1 53716U 22107S   23124.55829920  .00000820  00000-0  69550-4 0  9995,2 53716  53.2175 243.1269 0000678  64.5957 295.5105 15.08846622 37381,6917.86,95.437,540.194,539.256,0.0
53716.0,STARLINK-4699,PAYLOAD,2023-05-04 16:34:43,15.08851317,5.95e-05,53.2163,242.533,86.8483,273.2577,0.00015305,2.15e-05,0.0,0 STARLINK-4699,1 53716U 22107S   23124.69077597  .00002150  00000-0  15305-3 0  9991,2 53716  53.2163 242.5330 0000595  86.8483 273.2577 15.08851317 36954,6917.846,95.437,540.122,539.299,0.0
53716.0,STARLINK-4699,PAYLOAD,2023-05-05 08:28:35,15.08824351,6.81e-05,53.2157,239.5601,83.9136,276.1934,-0.00023218,-3.979e-05,0.0,0 STARLINK-4699,1 53716U 22107S   23125.35318823 -.00003979  00000-0 -23218-3 0  9999,2 53716  53.2157 239.5601 0000681  83.9136 276.1934 15.08824351 37052,6917.928,95.439,540.264,539.322,0.0
53716.0,STARLINK-4699,PAYLOAD,2023-05-05 14:50:08,15.08829469,7.5e-05,53.2159,238.3708,87.3834,272.7244,-9.58e-05,-1.811e-05,0.0,0 STARLINK-4699,1 53716U 22107S   23125.61814850 -.00001811  00000-0 -95800-4 0  9999,2 53716  53.2159 238.3708 0000750  87.3834 272.7244 15.08829469 37544,6917.913,95.438,540.296,539.259,0.0
53716.0,STARLINK-4699,PAYLOAD,2023-05-06 00:22:26,15.088376,7.17e-05,53.216,236.5868,72.8337,287.2734,0.00011989,1.621e-05,0.0,0 STARLINK-4699,1 53716U 22107S   23126.01558759  .00001621  00000-0  11989-3 0  9999,2 53716  53.2160 236.5868 0000717  72.8337 287.2734 15.08837600 37151,6917.888,95.438,540.249,539.257,0.0
53716.0,STARLINK-4699,PAYLOAD,2023-05-06 13:05:31,15.08857353,6.55e-05,53.2148,234.2079,90.9641,269.1426,0.00051774,7.966e-05,0.0,0 STARLINK-4699,1 53716U 22107S   23126.54550222  .00007966  00000-0  51774-3 0  9998,2 53716  53.2148 234.2079 0000655  90.9641 269.1426 15.08857353 37688,6917.827,95.436,540.145,539.239,0.0
53716.0,STARLINK-4699,PAYLOAD,2023-05-07 12:56:19,15.0882469,0.0001273,53.2158,229.7458,107.6047,252.5084,-7.2184e-05,-1.436e-05,0.0,0 STARLINK-4699,1 53716U 22107S   23127.53911749 -.00001436  00000-0 -72184-4 0  9990,2 53716  53.2158 229.7458 0001273 107.6047 252.5084 15.08824690 37383,6917.927,95.439,540.673,538.912,0.0
53716.0,STARLINK-4699,PAYLOAD,2023-05-07 14:31:42,15.08829915,7e-05,53.2148,229.4492,93.148,266.9592,5.5213e-05,5.91e-06,0.0,0 STARLINK-4699,1 53716U 22107S   23127.60535730  .00000591  00000-0  55213-4 0  9993,2 53716  53.2148 229.4492 0000700  93.1480 266.9592 15.08829915 37840,6917.911,95.438,540.26,539.292,0.0
53716.0,STARLINK-4699,PAYLOAD,2023-05-08 00:04:01,15.08843017,6.65e-05,53.2146,227.6666,97.5741,262.5327,0.00024651,3.638e-05,0.0,0 STARLINK-4699,1 53716U 22107S   23128.00279213  .00003638  00000-0  24651-3 0  9995,2 53716  53.2146 227.6666 0000665  97.5741 262.5327 15.08843017 37453,6917.871,95.437,540.196,539.276,0.0
53716.0,STARLINK-4699,PAYLOAD,2023-05-08 12:47:06,15.0886201,6.88e-05,53.2147,225.2873,98.9385,261.1685,0.0010767,0.000169,0.0,0 STARLINK-4699,1 53716U 22107S   23128.53270836  .00016900  00000-0  10767-2 0  9993,2 53716  53.2147 225.2873 0000688  98.9385 261.1685 15.08862010 37537,6917.813,95.436,540.154,539.202,0.0
53716.0,STARLINK-4699,PAYLOAD,2023-05-09 12:37:52,15.08854597,0.0001181,53.2143,220.8251,147.8075,212.2989,0.00036232,5.485e-05,0.0,0 STARLINK-4699,1 53716U 22107S   23129.52630291  .00005485  00000-0  36232-3 0  9990,2 53716  53.2143 220.8251 0001181 147.8075 212.2989 15.08854597 38135,6917.836,95.437,540.518,538.884,0.0
53716.0,STARLINK-4699,PAYLOAD,2023-05-10 12:28:40,15.08841499,6.88e-05,53.215,216.3663,114.013,246.0934,0.0001111,1.481e-05,0.0,0 STARLINK-4699,1 53716U 22107S   23130.51991012  .00001481  00000-0  11110-3 0  9992,2 53716  53.2150 216.3663 0000688 114.0130 246.0934 15.08841499 38287,6917.876,95.437,540.217,539.265,0.0
53716.0,STARLINK-4699,PAYLOAD,2023-05-10 15:39:26,15.08847086,7.29e-05,53.2158,215.773,114.209,245.8978,0.00020257,2.938e-05,0.0,0 STARLINK-4699,1 53716U 22107S   23130.65238769  .00002938  00000-0  20257-3 0  9990,2 53716  53.2158 215.7730 0000729 114.2090 245.8978 15.08847086 38302,6917.859,95.437,540.228,539.219,0.0
53716.0,STARLINK-4699,PAYLOAD,2023-05-11 10:44:03,15.08842834,7.97e-05,53.2158,212.2052,104.5491,255.5589,0.00013793,1.908e-05,0.0,0 STARLINK-4699,1 53716U 22107S   23131.44726797  .00001908  00000-0  13793-3 0  9994,2 53716  53.2158 212.2052 0000797 104.5491 255.5589 15.08842834 38428,6917.872,95.437,540.288,539.185,0.0
53716.0,STARLINK-4699,PAYLOAD,2023-05-11 21:51:45,15.08843863,7.27e-05,53.2156,210.1209,92.517,267.5905,0.00010908,1.449e-05,0.0,0 STARLINK-4699,1 53716U 22107S   23131.91094648  .00001449  00000-0  10908-3 0  9994,2 53716  53.2156 210.1209 0000727  92.5170 267.5905 15.08843863 38495,6917.869,95.437,540.237,539.231,0.0
53716.0,STARLINK-4699,PAYLOAD,2023-05-12 08:59:28,15.08836894,8.53e-05,53.2163,208.0432,97.9532,262.1557,4.3316e-05,4.02e-06,0.0,0 STARLINK-4699,1 53716U 22107S   23132.37463208  .00000402  00000-0  43316-4 0  9995,2 53716  53.2163 208.0432 0000853  97.9532 262.1557 15.08836894 38117,6917.89,95.438,540.345,539.165,0.0
53716.0,STARLINK-4699,PAYLOAD,2023-05-13 12:01:01,15.08841212,9.44e-05,53.2157,202.9903,120.8115,239.297,0.00015917,2.246e-05,0.0,0 STARLINK-4699,1 53716U 22107S   23133.50070841  .00002246  00000-0  15917-3 0  9991,2 53716  53.2157 202.9903 0000944 120.8115 239.2970 15.08841212 38282,6917.877,95.437,540.395,539.089,0.0
53716.0,STARLINK-4699,PAYLOAD,2023-05-13 19:57:56,15.08841886,0.0002329,53.2144,201.4901,182.0711,178.0272,-2.5815e-05,-6.99e-06,0.0,0 STARLINK-4699,1 53716U 22107S   23133.83190033 -.00000699  00000-0 -25815-4 0  9994,2 53716  53.2144 201.4901 0002329 182.0711 178.0272 15.08841886 38788,6917.875,95.437,541.351,538.128,0.0
53716.0,STARLINK-4699,PAYLOAD,2023-05-13 21:33:21,15.08823286,7.62e-05,53.2154,201.2018,95.3069,264.801,-6.6718e-05,-1.349e-05,0.0,0 STARLINK-4699,1 53716U 22107S   23133.89816526 -.00001349  00000-0 -66718-4 0  9992,2 53716  53.2154 201.2018 0000762  95.3069 264.8010 15.08823286 38347,6917.931,95.439,540.324,539.269,0.0
